[
    {
        "Altitude(m)": 604234.6106377549,
        "Argument of Periapsis(deg)": 0.0,
        "Eccentricity": 0.0,
        "Inclination(deg)": 60.0,
        "Latitude(deg)": 14.117243793614536,
        "Longitude(deg)": 16.727303503477113,
        "Mean Anomaly(deg)": -196.36360000000005,
        "RAAN(deg)": 305.0,
        "Satellite Name": "Test1 1352",
        "Satellite Number": 1352,
        "Semi-Major Axis(m)": 6980739.136638005,
        "Time(s)": 0
    },
    {
        "Altitude(m)": 604223.4392386694,
        "Argument of Periapsis(deg)": 0.00010418945913296404,
        "Eccentricity": 0.0,
        "Inclination(deg)": 60.0,
        "Latitude(deg)": 13.582380642581983,
        "Longitude(deg)": 17.01421362772049,
        "Mean Anomaly(deg)": -195.7434938545382,
        "RAAN(deg)": 304.99957995086027,
        "Satellite Name": "Test1 1352",
        "Satellite Number": 1352,
        "Semi-Major Axis(m)": 6980739.136638005,
        "Time(s)": 10
    }
]